[
    {
        "CCSDS_OMM_VERS": "3.0",
        "COMMENT": "GENERATED VIA SPACE-TRACK.ORG API",
        "CREATION_DATE": "2025-03-02T18:08:23",
        "ORIGINATOR": "18 SPCS",
        "OBJECT_NAME": "COSMOS 2477 (GLONASS)",
        "OBJECT_ID": "2011-064B",
        "CENTER_NAME": "EARTH",
        "REF_FRAME": "TEME",
        "TIME_SYSTEM": "UTC",
        "MEAN_ELEMENT_THEORY": "SGP4",
        "EPOCH": "2025-03-02T08:55:38.697024",
        "MEAN_MOTION": "2.13102917",
        "ECCENTRICITY": "0.00220550",
        "INCLINATION": "65.0146",
        "RA_OF_ASC_NODE": "88.9064",
        "ARG_OF_PERICENTER": "242.2583",
        "MEAN_ANOMALY": "301.4824",
        "EPHEMERIS_TYPE": "0",
        "CLASSIFICATION_TYPE": "U",
        "NORAD_CAT_ID": "37868",
        "ELEMENT_SET_NO": "999",
        "REV_AT_EPOCH": "10370",
        "BSTAR": "0.00000000000000",
        "MEAN_MOTION_DOT": "0.00000037",
        "MEAN_MOTION_DDOT": "0.0000000000000",
        "SEMIMAJOR_AXIS": "25507.951",
        "PERIOD": "675.730",
        "APOAPSIS": "19186.074",
        "PERIAPSIS": "19073.558",
        "OBJECT_TYPE": "PAYLOAD",
        "RCS_SIZE": "LARGE",
        "COUNTRY_CODE": "CIS",
        "LAUNCH_DATE": "2011-11-04",
        "SITE": "TTMTR",
        "DECAY_DATE": null,
        "FILE": "4657142",
        "GP_ID": "282083364",
        "TLE_LINE0": "0 COSMOS 2477 (GLONASS)",
        "TLE_LINE1": "1 37868U 11064B   25061.37197566  .00000037  00000-0  00000-0 0  9992",
        "TLE_LINE2": "2 37868  65.0146  88.9064 0022055 242.2583 301.4824  2.13102917103700"
    }
]